start=new Date('2021-12-20T00:00:00.000Z').valueOf();
sats=[{"MEAN_ANOMALY":"286.5405","INCLINATION":"53.0558","LAUNCH_DATE":"2021-04-07","MEAN_ELEMENT_THEORY":"SGP4","NORAD_CAT_ID":"48125","REF_FRAME":"TEME","APOAPSIS":"548.880","OBJECT_TYPE":"PAYLOAD","EPHEMERIS_TYPE":"0","REV_AT_EPOCH":"4018","ARG_OF_PERICENTER":"73.5853","ECCENTRICITY":"0.00024430","OBJECT_ID":"2021-027AK","TIME_SYSTEM":"UTC","RCS_SIZE":"LARGE","PERIAPSIS":"545.497","CLASSIFICATION_TYPE":"U","SEMIMAJOR_AXIS":"6925.324","EPOCH":"2021-12-19T20:47:57.831648","MEAN_MOTION_DDOT":"0.0000000000000","TLE_LINE1":"1 48125U 21027AK  21353.86664157  .00002026  00000-0  15484-3 0  9994","TLE_LINE2":"2 48125  53.0558 248.6434 0002443  73.5853 286.5405 15.06408139 40183","COUNTRY_CODE":"US","BSTAR":"0.00015484000000","SITE":"AFETR","ELEMENT_SET_NO":"999","MEAN_MOTION":"15.06408139","FILE":"3244825","RA_OF_ASC_NODE":"248.6434","CENTER_NAME":"EARTH","GP_ID":"192040590","PERIOD":"95.592","OBJECT_NAME":"STARLINK-2466","MEAN_MOTION_DOT":"0.00002026","DECAY_DATE":null},{"SEMIMAJOR_AXIS":"6925.327","PERIAPSIS":"545.433","CLASSIFICATION_TYPE":"U","MEAN_MOTION_DDOT":"0.0000000000000","EPOCH":"2021-12-19T21:50:21.907392","REV_AT_EPOCH":"4047","EPHEMERIS_TYPE":"0","RCS_SIZE":"LARGE","OBJECT_ID":"2021-027AL","ARG_OF_PERICENTER":"73.6194","ECCENTRICITY":"0.00025400","TIME_SYSTEM":"UTC","NORAD_CAT_ID":"48126","REF_FRAME":"TEME","APOAPSIS":"548.951","OBJECT_TYPE":"PAYLOAD","MEAN_ANOMALY":"286.5074","MEAN_ELEMENT_THEORY":"SGP4","LAUNCH_DATE":"2021-04-07","INCLINATION":"53.0537","PERIOD":"95.592","OBJECT_NAME":"STARLINK-2467","GP_ID":"192040840","CENTER_NAME":"EARTH","MEAN_MOTION_DOT":"0.00000089","DECAY_DATE":null,"MEAN_MOTION":"15.06407126","ELEMENT_SET_NO":"999","FILE":"3244825","RA_OF_ASC_NODE":"228.4381","COUNTRY_CODE":"US","BSTAR":"0.00002493200000","SITE":"AFETR","TLE_LINE1":"1 48126U 21027AL  21353.90997578  .00000089  00000-0  24932-4 0  9992","TLE_LINE2":"2 48126  53.0537 228.4381 0002540  73.6194 286.5074 15.06407126 40474"},{"EPOCH":"2021-12-19T21:37:05.933568","MEAN_MOTION_DDOT":"0.0000000000000","PERIAPSIS":"545.454","CLASSIFICATION_TYPE":"U","SEMIMAJOR_AXIS":"6925.350","ECCENTRICITY":"0.00025430","OBJECT_ID":"2021-027AM","ARG_OF_PERICENTER":"65.0665","TIME_SYSTEM":"UTC","RCS_SIZE":"LARGE","EPHEMERIS_TYPE":"0","REV_AT_EPOCH":"4018","APOAPSIS":"548.977","OBJECT_TYPE":"PAYLOAD","NORAD_CAT_ID":"48127","REF_FRAME":"TEME","MEAN_ELEMENT_THEORY":"SGP4","LAUNCH_DATE":"2021-04-07","INCLINATION":"53.0558","MEAN_ANOMALY":"295.0588","DECAY_DATE":null,"MEAN_MOTION_DOT":"0.00001032","GP_ID":"192041592","CENTER_NAME":"EARTH","PERIOD":"95.592","OBJECT_NAME":"STARLINK-2468","FILE":"3244825","RA_OF_ASC_NODE":"248.4913","ELEMENT_SET_NO":"999","MEAN_MOTION":"15.06399384","SITE":"AFETR","COUNTRY_CODE":"US","BSTAR":"0.00008818400000","TLE_LINE2":"2 48127  53.0558 248.4913 0002543  65.0665 295.0588 15.06399384 40181","TLE_LINE1":"1 48127U 21027AM  21353.90076312  .00001032  00000-0  88184-4 0  9995"},{"RCS_SIZE":"LARGE","ECCENTRICITY":"0.00034720","TIME_SYSTEM":"UTC","OBJECT_ID":"2021-027AN","ARG_OF_PERICENTER":"90.3643","REV_AT_EPOCH":"4115","EPHEMERIS_TYPE":"0","MEAN_MOTION_DDOT":"0.0000000000000","EPOCH":"2021-12-19T20:57:16.221024","SEMIMAJOR_AXIS":"6925.327","PERIAPSIS":"544.787","CLASSIFICATION_TYPE":"U","INCLINATION":"53.0561","LAUNCH_DATE":"2021-04-07","MEAN_ELEMENT_THEORY":"SGP4","MEAN_ANOMALY":"269.7743","APOAPSIS":"549.596","OBJECT_TYPE":"PAYLOAD","NORAD_CAT_ID":"48128","REF_FRAME":"TEME","FILE":"3244825","RA_OF_ASC_NODE":"178.5973","MEAN_MOTION":"15.06407145","ELEMENT_SET_NO":"999","DECAY_DATE":null,"MEAN_MOTION_DOT":"0.00001007","PERIOD":"95.592","OBJECT_NAME":"STARLINK-2469","GP_ID":"192041342","CENTER_NAME":"EARTH","TLE_LINE2":"2 48128  53.0561 178.5973 0003472  90.3643 269.7743 15.06407145 41158","TLE_LINE1":"1 48128U 21027AN  21353.87310441  .00001007  00000-0  86524-4 0  9994","SITE":"AFETR","BSTAR":"0.00008652400000","COUNTRY_CODE":"US"},{"MEAN_MOTION":"15.06401568","ELEMENT_SET_NO":"999","FILE":"3244825","RA_OF_ASC_NODE":"248.5224","PERIOD":"95.592","OBJECT_NAME":"STARLINK-2471","GP_ID":"192040090","CENTER_NAME":"EARTH","MEAN_MOTION_DOT":"0.00002050","DECAY_DATE":null,"TLE_LINE1":"1 48129U 21027AP  21353.89338869  .00002050  00000-0  15652-3 0  9993","TLE_LINE2":"2 48129  53.0558 248.5224 0002391  71.6332 288.4917 15.06401568 40184","BSTAR":"0.00015652000000","COUNTRY_CODE":"US","SITE":"AFETR","REV_AT_EPOCH":"4018","EPHEMERIS_TYPE":"0","RCS_SIZE":"LARGE","OBJECT_ID":"2021-027AP","ARG_OF_PERICENTER":"71.6332","TIME_SYSTEM":"UTC","ECCENTRICITY":"0.00023910","SEMIMAJOR_AXIS":"6925.344","PERIAPSIS":"545.553","CLASSIFICATION_TYPE":"U","MEAN_MOTION_DDOT":"0.0000000000000","EPOCH":"2021-12-19T21:26:28.782816","MEAN_ANOMALY":"288.4917","LAUNCH_DATE":"2021-04-07","MEAN_ELEMENT_THEORY":"SGP4","INCLINATION":"53.0558","NORAD_CAT_ID":"48129","REF_FRAME":"TEME","APOAPSIS":"548.865","OBJECT_TYPE":"PAYLOAD"},{"EPHEMERIS_TYPE":"0","REV_AT_EPOCH":"4011","ECCENTRICITY":"0.00023600","ARG_OF_PERICENTER":"65.3226","TIME_SYSTEM":"UTC","OBJECT_ID":"2021-027AQ","RCS_SIZE":"LARGE","PERIAPSIS":"545.573","CLASSIFICATION_TYPE":"U","SEMIMAJOR_AXIS":"6925.342","EPOCH":"2021-12-19T21:11:11.357376","MEAN_MOTION_DDOT":"0.0000000000000","MEAN_ANOMALY":"294.8009","MEAN_ELEMENT_THEORY":"SGP4","LAUNCH_DATE":"2021-04-07","INCLINATION":"53.0541","NORAD_CAT_ID":"48130","REF_FRAME":"TEME","APOAPSIS":"548.842","OBJECT_TYPE":"PAYLOAD","ELEMENT_SET_NO":"999","MEAN_MOTION":"15.06402060","FILE":"3244825","RA_OF_ASC_NODE":"253.5745","CENTER_NAME":"EARTH","GP_ID":"192040340","PERIOD":"95.592","OBJECT_NAME":"STARLINK-2472","MEAN_MOTION_DOT":"0.00001332","DECAY_DATE":null,"TLE_LINE1":"1 48130U 21027AQ  21353.88277034  .00001332  00000-0  10829-3 0  9993","TLE_LINE2":"2 48130  53.0541 253.5745 0002360  65.3226 294.8009 15.06402060 40114","BSTAR":"0.00010829000000","COUNTRY_CODE":"US","SITE":"AFETR"},{"BSTAR":"0.00016050000000","COUNTRY_CODE":"US","SITE":"AFETR","TLE_LINE1":"1 48131U 21027AR  21353.90261013  .00002109  00000-0  16050-3 0  9992","TLE_LINE2":"2 48131  53.0532 228.4883 0002720  70.9968 289.1315 15.06397103 40460","GP_ID":"192041092","CENTER_NAME":"EARTH","PERIOD":"95.592","OBJECT_NAME":"STARLINK-2473","MEAN_MOTION_DOT":"0.00002109","DECAY_DATE":null,"ELEMENT_SET_NO":"999","MEAN_MOTION":"15.06397103","FILE":"3244825","RA_OF_ASC_NODE":"228.4883","NORAD_CAT_ID":"48131","REF_FRAME":"TEME","APOAPSIS":"549.106","OBJECT_TYPE":"PAYLOAD","MEAN_ANOMALY":"289.1315","MEAN_ELEMENT_THEORY":"SGP4","LAUNCH_DATE":"2021-04-07","INCLINATION":"53.0532","CLASSIFICATION_TYPE":"U","PERIAPSIS":"545.339","SEMIMAJOR_AXIS":"6925.357","EPOCH":"2021-12-19T21:39:45.515232","MEAN_MOTION_DDOT":"0.0000000000000","EPHEMERIS_TYPE":"0","REV_AT_EPOCH":"4046","OBJECT_ID":"2021-027AR","ECCENTRICITY":"0.00027200","TIME_SYSTEM":"UTC","ARG_OF_PERICENTER":"70.9968","RCS_SIZE":"LARGE"},{"ELEMENT_SET_NO":"999","MEAN_MOTION":"15.06402778","FILE":"3244825","RA_OF_ASC_NODE":"248.5774","GP_ID":"192041843","CENTER_NAME":"EARTH","PERIOD":"95.592","OBJECT_NAME":"STARLINK-2474","DECAY_DATE":null,"MEAN_MOTION_DOT":"0.00000108","TLE_LINE1":"1 48132U 21027AS  21353.88233426  .00000108  00000-0  26187-4 0  9997","TLE_LINE2":"2 48132  53.0559 248.5774 0002432  62.4579 297.6657 15.06402778 40172","BSTAR":"0.00002618700000","COUNTRY_CODE":"US","SITE":"AFETR","EPHEMERIS_TYPE":"0","REV_AT_EPOCH":"4017","ECCENTRICITY":"0.00024320","OBJECT_ID":"2021-027AS","ARG_OF_PERICENTER":"62.4579","TIME_SYSTEM":"UTC","RCS_SIZE":"LARGE","PERIAPSIS":"545.521","CLASSIFICATION_TYPE":"U","SEMIMAJOR_AXIS":"6925.340","EPOCH":"2021-12-19T21:10:33.680064","MEAN_MOTION_DDOT":"0.0000000000000","MEAN_ANOMALY":"297.6657","LAUNCH_DATE":"2021-04-07","MEAN_ELEMENT_THEORY":"SGP4","INCLINATION":"53.0559","NORAD_CAT_ID":"48132","REF_FRAME":"TEME","APOAPSIS":"548.889","OBJECT_TYPE":"PAYLOAD"},{"ARG_OF_PERICENTER":"71.4397","ECCENTRICITY":"0.00023250","TIME_SYSTEM":"UTC","OBJECT_ID":"2021-027AT","RCS_SIZE":"LARGE","EPHEMERIS_TYPE":"0","REV_AT_EPOCH":"4018","EPOCH":"2021-12-19T21:05:15.455904","MEAN_MOTION_DDOT":"0.0000000000000","PERIAPSIS":"545.606","CLASSIFICATION_TYPE":"U","SEMIMAJOR_AXIS":"6925.351","MEAN_ELEMENT_THEORY":"SGP4","LAUNCH_DATE":"2021-04-07","INCLINATION":"53.0562","MEAN_ANOMALY":"288.6844","OBJECT_TYPE":"PAYLOAD","APOAPSIS":"548.827","REF_FRAME":"TEME","NORAD_CAT_ID":"48133","RA_OF_ASC_NODE":"248.5933","FILE":"3244825","ELEMENT_SET_NO":"999","MEAN_MOTION":"15.06399071","DECAY_DATE":null,"MEAN_MOTION_DOT":"0.00001149","GP_ID":"192040591","CENTER_NAME":"EARTH","OBJECT_NAME":"STARLINK-2475","PERIOD":"95.592","TLE_LINE2":"2 48133  53.0562 248.5933 0002325  71.4397 288.6844 15.06399071 40183","TLE_LINE1":"1 48133U 21027AT  21353.87865111  .00001149  00000-0  96052-4 0  9993","SITE":"AFETR","BSTAR":"0.00009605200000","COUNTRY_CODE":"US"},{"TLE_LINE2":"2 48134  53.0558 248.6568 0002583  67.6132 292.5131 15.06404035 40173","TLE_LINE1":"1 48134U 21027AU  21353.86390205  .00002217  00000-0  16771-3 0  9996","SITE":"AFETR","BSTAR":"0.00016771000000","COUNTRY_CODE":"US","RA_OF_ASC_NODE":"248.6568","FILE":"3244825","ELEMENT_SET_NO":"999","MEAN_MOTION":"15.06404035","DECAY_DATE":null,"MEAN_MOTION_DOT":"0.00002217","CENTER_NAME":"EARTH","GP_ID":"192040841","OBJECT_NAME":"STARLINK-2476","PERIOD":"95.592","LAUNCH_DATE":"2021-04-07","MEAN_ELEMENT_THEORY":"SGP4","INCLINATION":"53.0558","MEAN_ANOMALY":"292.5131","OBJECT_TYPE":"PAYLOAD","APOAPSIS":"548.990","REF_FRAME":"TEME","NORAD_CAT_ID":"48134","ECCENTRICITY":"0.00025830","TIME_SYSTEM":"UTC","ARG_OF_PERICENTER":"67.6132","OBJECT_ID":"2021-027AU","RCS_SIZE":"LARGE","EPHEMERIS_TYPE":"0","REV_AT_EPOCH":"4017","EPOCH":"2021-12-19T20:44:01.137120","MEAN_MOTION_DDOT":"0.0000000000000","PERIAPSIS":"545.412","CLASSIFICATION_TYPE":"U","SEMIMAJOR_AXIS":"6925.336"}];
